[{"OBJECT_NAME":"STARLINK-30614","OBJECT_ID":"2023-161B","EPOCH":"2026-01-27T05:19:29.023680","MEAN_MOTION":15.30197132,"ECCENTRICITY":0.00012459,"INCLINATION":53.1618,"RA_OF_ASC_NODE":358.0827,"ARG_OF_PERICENTER":89.4443,"MEAN_ANOMALY":270.6701,"EPHEMERIS_TYPE":0,"CLASSIFICATION_TYPE":"U","NORAD_CAT_ID":58098,"ELEMENT_SET_NO":999,"REV_AT_EPOCH":12807,"BSTAR":8.0321351e-5,"MEAN_MOTION_DOT":2.02e-5,"MEAN_MOTION_DDOT":0},{"OBJECT_NAME":"STARLINK-30607","OBJECT_ID":"2023-161C","EPOCH":"2026-01-26T21:33:53.802432","MEAN_MOTION":15.30192707,"ECCENTRICITY":0.00010249,"INCLINATION":53.1616,"RA_OF_ASC_NODE":349.624,"ARG_OF_PERICENTER":69.2363,"MEAN_ANOMALY":290.8748,"EPHEMERIS_TYPE":0,"CLASSIFICATION_TYPE":"U","NORAD_CAT_ID":58099,"ELEMENT_SET_NO":999,"REV_AT_EPOCH":12815,"BSTAR":0.00012901331,"MEAN_MOTION_DOT":3.463e-5,"MEAN_MOTION_DDOT":0},{"OBJECT_NAME":"STARLINK-30600","OBJECT_ID":"2023-161D","EPOCH":"2026-01-27T05:33:09.799488","MEAN_MOTION":15.30191858,"ECCENTRICITY":0.00013989,"INCLINATION":53.1626,"RA_OF_ASC_NODE":358.1284,"ARG_OF_PERICENTER":87.0839,"MEAN_ANOMALY":273.0321,"EPHEMERIS_TYPE":0,"CLASSIFICATION_TYPE":"U","NORAD_CAT_ID":58100,"ELEMENT_SET_NO":999,"REV_AT_EPOCH":12807,"BSTAR":4.8502879e-5,"MEAN_MOTION_DOT":1.077e-5,"MEAN_MOTION_DDOT":0},{"OBJECT_NAME":"STARLINK-30605","OBJECT_ID":"2023-161E","EPOCH":"2026-01-27T05:13:24.274848","MEAN_MOTION":15.30197222,"ECCENTRICITY":0.00010057,"INCLINATION":53.1608,"RA_OF_ASC_NODE":358.0551,"ARG_OF_PERICENTER":89.4955,"MEAN_ANOMALY":270.6161,"EPHEMERIS_TYPE":0,"CLASSIFICATION_TYPE":"U","NORAD_CAT_ID":58101,"ELEMENT_SET_NO":999,"REV_AT_EPOCH":12807,"BSTAR":3.9860004e-5,"MEAN_MOTION_DOT":8.22e-6,"MEAN_MOTION_DDOT":0},{"OBJECT_NAME":"STARLINK-30592","OBJECT_ID":"2023-161F","EPOCH":"2026-01-27T03:34:47.684928","MEAN_MOTION":15.30193766,"ECCENTRICITY":0.00012462,"INCLINATION":53.1599,"RA_OF_ASC_NODE":358.3384,"ARG_OF_PERICENTER":96.7984,"MEAN_ANOMALY":263.3159,"EPHEMERIS_TYPE":0,"CLASSIFICATION_TYPE":"U","NORAD_CAT_ID":58102,"ELEMENT_SET_NO":999,"REV_AT_EPOCH":12806,"BSTAR":7.1306309e-5,"MEAN_MOTION_DOT":1.753e-5,"MEAN_MOTION_DDOT":0},{"OBJECT_NAME":"STARLINK-30589","OBJECT_ID":"2023-161G","EPOCH":"2026-01-27T02:58:26.251680","MEAN_MOTION":15.30199892,"ECCENTRICITY":0.00014109,"INCLINATION":53.161,"RA_OF_ASC_NODE":358.6915,"ARG_OF_PERICENTER":108.1319,"MEAN_ANOMALY":251.9836,"EPHEMERIS_TYPE":0,"CLASSIFICATION_TYPE":"U","NORAD_CAT_ID":58103,"ELEMENT_SET_NO":999,"REV_AT_EPOCH":12805,"BSTAR":0.00017014021,"MEAN_MOTION_DOT":4.683e-5,"MEAN_MOTION_DDOT":0},{"OBJECT_NAME":"STARLINK-30617","OBJECT_ID":"2023-161H","EPOCH":"2026-01-27T03:03:00.123264","MEAN_MOTION":15.30203363,"ECCENTRICITY":0.0001228,"INCLINATION":53.1614,"RA_OF_ASC_NODE":358.7154,"ARG_OF_PERICENTER":72.139,"MEAN_ANOMALY":287.9744,"EPHEMERIS_TYPE":0,"CLASSIFICATION_TYPE":"U","NORAD_CAT_ID":58104,"ELEMENT_SET_NO":999,"REV_AT_EPOCH":12805,"BSTAR":0.00049777658,"MEAN_MOTION_DOT":0.00014414,"MEAN_MOTION_DDOT":0},{"OBJECT_NAME":"STARLINK-30616","OBJECT_ID":"2023-161J","EPOCH":"2026-01-27T03:33:57.690432","MEAN_MOTION":15.30189827,"ECCENTRICITY":0.00012997,"INCLINATION":53.1622,"RA_OF_ASC_NODE":345.383,"ARG_OF_PERICENTER":63.7838,"MEAN_ANOMALY":296.3296,"EPHEMERIS_TYPE":0,"CLASSIFICATION_TYPE":"U","NORAD_CAT_ID":58105,"ELEMENT_SET_NO":999,"REV_AT_EPOCH":12823,"BSTAR":5.3374947e-5,"MEAN_MOTION_DOT":1.221e-5,"MEAN_MOTION_DDOT":0},{"OBJECT_NAME":"STARLINK-30612","OBJECT_ID":"2023-161K","EPOCH":"2026-01-27T03:44:35.930688","MEAN_MOTION":15.30196239,"ECCENTRICITY":0.00013313,"INCLINATION":53.1609,"RA_OF_ASC_NODE":345.4412,"ARG_OF_PERICENTER":72.4751,"MEAN_ANOMALY":287.6396,"EPHEMERIS_TYPE":0,"CLASSIFICATION_TYPE":"U","NORAD_CAT_ID":58106,"ELEMENT_SET_NO":999,"REV_AT_EPOCH":12824,"BSTAR":0.00018446457,"MEAN_MOTION_DOT":5.107e-5,"MEAN_MOTION_DDOT":0},{"OBJECT_NAME":"STARLINK-30421","OBJECT_ID":"2023-161L","EPOCH":"2026-01-27T03:52:11.468640","MEAN_MOTION":15.30192775,"ECCENTRICITY":0.00010272,"INCLINATION":53.1608,"RA_OF_ASC_NODE":345.4418,"ARG_OF_PERICENTER":81.4167,"MEAN_ANOMALY":278.695,"EPHEMERIS_TYPE":0,"CLASSIFICATION_TYPE":"U","NORAD_CAT_ID":58107,"ELEMENT_SET_NO":999,"REV_AT_EPOCH":12824,"BSTAR":6.8078853e-5,"MEAN_MOTION_DOT":1.657e-5,"MEAN_MOTION_DDOT":0},{"OBJECT_NAME":"STARLINK-30611","OBJECT_ID":"2023-161M","EPOCH":"2026-01-27T02:48:31.398048","MEAN_MOTION":15.30197942,"ECCENTRICITY":0.00011753,"INCLINATION":53.1609,"RA_OF_ASC_NODE":345.8555,"ARG_OF_PERICENTER":76.0983,"MEAN_ANOMALY":284.0149,"EPHEMERIS_TYPE":0,"CLASSIFICATION_TYPE":"U","NORAD_CAT_ID":58108,"ELEMENT_SET_NO":999,"REV_AT_EPOCH":12823,"BSTAR":0.00030780688,"MEAN_MOTION_DOT":8.767e-5,"MEAN_MOTION_DDOT":0},{"OBJECT_NAME":"STARLINK-30606","OBJECT_ID":"2023-161N","EPOCH":"2026-01-27T05:28:36.284736","MEAN_MOTION":15.30193035,"ECCENTRICITY":0.00013343,"INCLINATION":53.1616,"RA_OF_ASC_NODE":358.1192,"ARG_OF_PERICENTER":71.3693,"MEAN_ANOMALY":288.7453,"EPHEMERIS_TYPE":0,"CLASSIFICATION_TYPE":"U","NORAD_CAT_ID":58109,"ELEMENT_SET_NO":999,"REV_AT_EPOCH":12807,"BSTAR":6.6323303e-5,"MEAN_MOTION_DOT":1.605e-5,"MEAN_MOTION_DDOT":0},{"OBJECT_NAME":"STARLINK-30596","OBJECT_ID":"2023-161P","EPOCH":"2026-01-27T03:21:07.144128","MEAN_MOTION":15.30195018,"ECCENTRICITY":8.289e-5,"INCLINATION":53.1612,"RA_OF_ASC_NODE":358.2779,"ARG_OF_PERICENTER":90.408,"MEAN_ANOMALY":269.7015,"EPHEMERIS_TYPE":0,"CLASSIFICATION_TYPE":"U","NORAD_CAT_ID":58110,"ELEMENT_SET_NO":999,"REV_AT_EPOCH":12806,"BSTAR":3.8152624e-5,"MEAN_MOTION_DOT":7.71e-6,"MEAN_MOTION_DDOT":0},{"OBJECT_NAME":"STARLINK-30595","OBJECT_ID":"2023-161Q","EPOCH":"2026-01-27T04:12:47.272896","MEAN_MOTION":15.3020739,"ECCENTRICITY":0.00015135,"INCLINATION":53.1625,"RA_OF_ASC_NODE":358.5019,"ARG_OF_PERICENTER":89.4457,"MEAN_ANOMALY":270.6717,"EPHEMERIS_TYPE":0,"CLASSIFICATION_TYPE":"U","NORAD_CAT_ID":58111,"ELEMENT_SET_NO":999,"REV_AT_EPOCH":12806,"BSTAR":0.0002421182,"MEAN_MOTION_DOT":6.82e-5,"MEAN_MOTION_DDOT":0},{"OBJECT_NAME":"STARLINK-30593","OBJECT_ID":"2023-161R","EPOCH":"2026-01-27T05:42:16.847136","MEAN_MOTION":15.30192575,"ECCENTRICITY":0.00014059,"INCLINATION":53.1626,"RA_OF_ASC_NODE":358.176,"ARG_OF_PERICENTER":76.9939,"MEAN_ANOMALY":283.1218,"EPHEMERIS_TYPE":0,"CLASSIFICATION_TYPE":"U","NORAD_CAT_ID":58112,"ELEMENT_SET_NO":999,"REV_AT_EPOCH":12807,"BSTAR":4.5427378e-5,"MEAN_MOTION_DOT":9.86e-6,"MEAN_MOTION_DDOT":0},{"OBJECT_NAME":"STARLINK-30353","OBJECT_ID":"2023-161S","EPOCH":"2026-01-27T02:47:51.131328","MEAN_MOTION":15.30196186,"ECCENTRICITY":0.00011598,"INCLINATION":53.1606,"RA_OF_ASC_NODE":358.843,"ARG_OF_PERICENTER":79.147,"MEAN_ANOMALY":280.9661,"EPHEMERIS_TYPE":0,"CLASSIFICATION_TYPE":"U","NORAD_CAT_ID":58113,"ELEMENT_SET_NO":999,"REV_AT_EPOCH":12805,"BSTAR":4.2211071e-5,"MEAN_MOTION_DOT":8.91e-6,"MEAN_MOTION_DDOT":0},{"OBJECT_NAME":"STARLINK-30572","OBJECT_ID":"2023-161T","EPOCH":"2026-01-27T05:37:43.588992","MEAN_MOTION":15.30190673,"ECCENTRICITY":0.00013274,"INCLINATION":53.1623,"RA_OF_ASC_NODE":358.1555,"ARG_OF_PERICENTER":74.3555,"MEAN_ANOMALY":285.7593,"EPHEMERIS_TYPE":0,"CLASSIFICATION_TYPE":"U","NORAD_CAT_ID":58114,"ELEMENT_SET_NO":999,"REV_AT_EPOCH":12807,"BSTAR":6.4628883e-5,"MEAN_MOTION_DOT":1.555e-5,"MEAN_MOTION_DDOT":0},{"OBJECT_NAME":"STARLINK-30580","OBJECT_ID":"2023-161U","EPOCH":"2026-01-27T04:59:43.730592","MEAN_MOTION":15.30193997,"ECCENTRICITY":0.00014261,"INCLINATION":53.162,"RA_OF_ASC_NODE":357.9805,"ARG_OF_PERICENTER":95.2041,"MEAN_ANOMALY":264.9123,"EPHEMERIS_TYPE":0,"CLASSIFICATION_TYPE":"U","NORAD_CAT_ID":58115,"ELEMENT_SET_NO":999,"REV_AT_EPOCH":12806,"BSTAR":9.7110362e-5,"MEAN_MOTION_DOT":2.517e-5,"MEAN_MOTION_DDOT":0},{"OBJECT_NAME":"STARLINK-30493","OBJECT_ID":"2023-161V","EPOCH":"2026-01-27T04:17:20.956128","MEAN_MOTION":15.30188776,"ECCENTRICITY":0.00014466,"INCLINATION":53.1617,"RA_OF_ASC_NODE":358.5198,"ARG_OF_PERICENTER":87.1327,"MEAN_ANOMALY":272.984,"EPHEMERIS_TYPE":0,"CLASSIFICATION_TYPE":"U","NORAD_CAT_ID":58116,"ELEMENT_SET_NO":999,"REV_AT_EPOCH":12806,"BSTAR":6.0912574e-5,"MEAN_MOTION_DOT":1.445e-5,"MEAN_MOTION_DDOT":0},{"OBJECT_NAME":"STARLINK-30601","OBJECT_ID":"2023-161W","EPOCH":"2026-01-27T02:52:24.044736","MEAN_MOTION":15.30230408,"ECCENTRICITY":9.91e-5,"INCLINATION":53.1625,"RA_OF_ASC_NODE":358.8663,"ARG_OF_PERICENTER":59.7873,"MEAN_ANOMALY":300.3226,"EPHEMERIS_TYPE":0,"CLASSIFICATION_TYPE":"U","NORAD_CAT_ID":58117,"ELEMENT_SET_NO":999,"REV_AT_EPOCH":12805,"BSTAR":-0.00025452979,"MEAN_MOTION_DOT":-7.897e-5,"MEAN_MOTION_DDOT":0},{"OBJECT_NAME":"STARLINK-30795","OBJECT_ID":"2023-162A","EPOCH":"2026-01-26T21:41:30.689952","MEAN_MOTION":15.02538236,"ECCENTRICITY":0.00010657,"INCLINATION":43.0061,"RA_OF_ASC_NODE":0.2109,"ARG_OF_PERICENTER":280.4814,"MEAN_ANOMALY":79.5908,"EPHEMERIS_TYPE":0,"CLASSIFICATION_TYPE":"U","NORAD_CAT_ID":58118,"ELEMENT_SET_NO":999,"REV_AT_EPOCH":12601,"BSTAR":0.0001092792,"MEAN_MOTION_DOT":1.273e-5,"MEAN_MOTION_DDOT":0},{"OBJECT_NAME":"STARLINK-30765","OBJECT_ID":"2023-162B","EPOCH":"2026-01-27T04:29:59.644896","MEAN_MOTION":15.02534392,"ECCENTRICITY":0.00012829,"INCLINATION":43.0022,"RA_OF_ASC_NODE":358.8763,"ARG_OF_PERICENTER":271.8024,"MEAN_ANOMALY":88.2672,"EPHEMERIS_TYPE":0,"CLASSIFICATION_TYPE":"U","NORAD_CAT_ID":58119,"ELEMENT_SET_NO":999,"REV_AT_EPOCH":12605,"BSTAR":5.0484379e-5,"MEAN_MOTION_DOT":4.78e-6,"MEAN_MOTION_DDOT":0},{"OBJECT_NAME":"STARLINK-30768","OBJECT_ID":"2023-162C","EPOCH":"2026-01-26T23:12:26.952768","MEAN_MOTION":15.02534773,"ECCENTRICITY":9.682e-5,"INCLINATION":43.0062,"RA_OF_ASC_NODE":359.818,"ARG_OF_PERICENTER":280.3458,"MEAN_ANOMALY":79.7275,"EPHEMERIS_TYPE":0,"CLASSIFICATION_TYPE":"U","NORAD_CAT_ID":58120,"ELEMENT_SET_NO":999,"REV_AT_EPOCH":12602,"BSTAR":-8.9981216e-5,"MEAN_MOTION_DOT":-1.419e-5,"MEAN_MOTION_DDOT":0}]
